H1 CPF 01  gfz 2022 11 11 01  8151 tandemx   
H2 1003001  6202 36605    2022 11 11 00 59 42 2022 11 16 00 00 42   120 1 1  0 0 0
H9
10 0 59894  36702.000000  0    1562177.837  -4434316.139  -5042756.045
10 0 59894  36822.000000  0    1135199.211  -3847690.323  -5607500.148
10 0 59894  36942.000000  0     699436.053  -3186735.260  -6074228.317
10 0 59894  37062.000000  0     263663.575  -2462895.074  -6434877.163
10 0 59894  37182.000000  0    -163568.490  -1688827.370  -6683229.905
10 0 59894  37302.000000  0    -574099.201   -878181.311  -6815013.183
10 0 59894  37422.000000  0    -960307.369    -45359.317  -6827962.808
10 0 59894  37542.000000  0   -1315249.234    794733.618  -6721857.367
10 0 59894  37662.000000  0   -1632780.389   1626949.564  -6498521.285
10 0 59894  37782.000000  0   -1907659.592   2436163.876  -6161796.630
10 0 59894  37902.000000  0   -2135634.709   3207544.301  -5717485.617
10 0 59894  38022.000000  0   -2313508.838   3926820.548  -5173260.677
10 0 59894  38142.000000  0   -2439185.631   4580549.055  -4538543.930
10 0 59894  38262.000000  0   -2511693.124   5156368.983  -3824354.425
10 0 59894  38382.000000  0   -2531184.127   5643242.076  -3043124.956
10 0 59894  38502.000000  0   -2498913.223   6031672.504  -2208493.308
10 0 59894  38622.000000  0   -2417191.310   6313903.451  -1335067.680
10 0 59894  38742.000000  0   -2289317.544   6484080.896   -438169.577
10 0 59894  38862.000000  0   -2119490.918   6538383.317    466437.061
10 0 59894  38982.000000  0   -1912702.785   6475114.814   1362831.367
10 0 59894  39102.000000  0   -1674610.910   6294750.899   2235227.628
10 0 59894  39222.000000  0   -1411400.071   5999939.316   3068261.882
10 0 59894  39342.000000  0   -1129633.859   5595458.293   3847268.813
10 0 59894  39462.000000  0    -836101.551   5088133.768   4558544.900
10 0 59894  39582.000000  0    -537661.984   4486715.092   5189593.658
10 0 59894  39702.000000  0    -241087.980   3801713.003   5729342.708
10 0 59894  39822.000000  0      47081.668   3045208.448   6168334.730
10 0 59894  39942.000000  0     320681.861   2230631.008   6498888.233
10 0 59894  40062.000000  0     574049.531   1372515.616   6715225.730
10 0 59894  40182.000000  0     802138.282    486239.611   6813569.030
10 0 59894  40302.000000  0    1000617.002   -412252.958   6792200.182
10 0 59894  40422.000000  0    1165951.247  -1306737.137   6651490.816
10 0 59894  40542.000000  0    1295466.210  -2180999.835   6393896.443
10 0 59894  40662.000000  0    1387390.172  -3019133.822   6023916.895
10 0 59894  40782.000000  0    1440877.509  -3805829.434   5548022.065
10 0 59894  40902.000000  0    1456010.936  -4526656.835   4974543.108
10 0 59894  41022.000000  0    1433784.273  -5168334.599   4313532.959
10 0 59894  41142.000000  0    1376065.052  -5718983.096   3576596.304
10 0 59894  41262.000000  0    1285537.467  -6168354.614   2776687.151
10 0 59894  41382.000000  0    1165626.466  -6508032.475   1927880.369
10 0 59894  41502.000000  0    1020404.667  -6731597.953   1045121.963
10 0 59894  41622.000000  0     854484.898  -6834759.421    143960.430
10 0 59894  41742.000000  0     672899.898  -6815440.274   -759736.194
10 0 59894  41862.000000  0     480971.905  -6673819.194  -1650070.764
10 0 59894  41982.000000  0     284178.176  -6412323.739  -2511404.739
10 0 59894  42102.000000  0      88014.790  -6035580.611  -3328638.353
10 0 59894  42222.000000  0    -102138.348  -5550323.433  -4087478.949
10 0 59894  42342.000000  0    -281147.950  -4965259.179  -4774691.179
10 0 59894  42462.000000  0    -444249.724  -4290898.923  -5378322.954
10 0 59894  42582.000000  0    -587160.100  -3539358.117  -5887905.730
10 0 59894  42702.000000  0    -706174.670  -2724130.350  -6294626.021
10 0 59894  42822.000000  0    -798251.919  -1859839.938  -6591466.550
10 0 59894  42942.000000  0    -861080.903   -961978.591  -6773315.810
10 0 59894  43062.000000  0    -893132.046    -46630.584  -6837047.252
10 0 59894  43182.000000  0    -893689.700    869810.341  -6781566.316
10 0 59894  43302.000000  0    -862866.651   1770926.739  -6607826.627
10 0 59894  43422.000000  0    -801600.599   2640563.937  -6318815.327
10 0 59894  43542.000000  0    -711632.096   3463113.470  -5919508.584
10 0 59894  43662.000000  0    -595464.408   4223791.108  -5416795.349
10 0 59894  43782.000000  0    -456305.488   4908902.869  -4819369.356
10 0 59894  43902.000000  0    -297993.729   5506096.580  -4137590.477
10 0 59894  44022.000000  0    -124908.142   6004593.117  -3383314.714
10 0 59894  44142.000000  0      58135.630   6395391.481  -2569695.576
10 0 59894  44262.000000  0     246001.230   6671443.878  -1710959.430
10 0 59894  44382.000000  0     433356.868   6827795.828   -822157.392
10 0 59894  44502.000000  0     614807.377   6861686.421     81101.700
10 0 59894  44622.000000  0     785029.741   6772605.578    982931.822
10 0 59894  44742.000000  0     938908.193   6562305.462   1867457.607
10 0 59894  44862.000000  0    1071664.046   6234766.229   2719102.267
10 0 59894  44982.000000  0    1178978.275   5796118.530   3522869.226
10 0 59894  45102.000000  0    1257104.283   5254522.664   4264613.138
10 0 59894  45222.000000  0    1302969.160   4620009.334   4931293.656
10 0 59894  45342.000000  0    1314255.892   3904280.869   5511207.665
10 0 59894  45462.000000  0    1289469.918   3120485.071   5994188.854
10 0 59894  45582.000000  0    1227986.990   2282967.092   6371781.663
10 0 59894  45702.000000  0    1130080.897   1407000.921   6637384.058
10 0 59894  45822.000000  0     996931.507    508506.623   6786356.825
10 0 59894  45942.000000  0     830612.685   -396239.364   6816098.460
10 0 59894  46062.000000  0     634060.181  -1290897.897   6726089.214
10 0 59894  46182.000000  0     411019.668  -2159362.430   6517900.124
10 0 59894  46302.000000  0     165975.573  -2986049.161   6195167.709
10 0 59894  46422.000000  0     -95937.575  -3756178.669   5763532.651
10 0 59894  46542.000000  0    -369039.118  -4456040.714   5230544.907
10 0 59894  46662.000000  0    -647220.340  -5073241.708   4605539.650
10 0 59894  46782.000000  0    -924076.082  -5596933.625   3899481.534
10 0 59894  46902.000000  0   -1193046.839  -6018015.186   3124774.677
10 0 59894  47022.000000  0   -1447567.308  -6329299.030   2295045.031
10 0 59894  47142.000000  0   -1681218.212  -6525643.935   1424899.585
10 0 59894  47262.000000  0   -1887879.217  -6604047.359    529663.630
10 0 59894  47382.000000  0   -2061875.981  -6563693.866   -374897.454
10 0 59894  47502.000000  0   -2198118.795  -6405959.700  -1272864.636
10 0 59894  47622.000000  0   -2292229.773  -6134373.342  -2148453.837
10 0 59894  47742.000000  0   -2340655.513  -5754533.364  -2986300.841
10 0 59894  47862.000000  0   -2340762.054  -5273985.080  -3771736.487
10 0 59894  47982.000000  0   -2290909.558  -4702059.617  -4491045.033
10 0 59894  48102.000000  0   -2190505.520  -4049681.619  -5131700.403
10 0 59894  48222.000000  0   -2040036.119  -3329151.267  -5682577.573
10 0 59894  48342.000000  0   -1841075.392  -2553905.464  -6134137.091
10 0 59894  48462.000000  0   -1596271.625  -1738262.335  -6478580.038
10 0 59894  48582.000000  0   -1309311.848   -897155.221  -6709970.765
10 0 59894  48702.000000  0    -984866.477    -45861.580  -6824328.247
10 0 59894  48822.000000  0    -628514.023    800269.107  -6819686.518
10 0 59894  48942.000000  0    -246646.470   1626084.857  -6696124.549
10 0 59894  49062.000000  0     153641.651   2416895.180  -6455764.938
10 0 59894  49182.000000  0     564680.845   3158727.027  -6102743.511
10 0 59894  49302.000000  0     978370.332   3838569.714  -5643145.907
10 0 59894  49422.000000  0    1386333.081   4444602.589  -5084912.111
10 0 59894  49542.000000  0    1780081.339   4966404.397  -4437711.603
10 0 59894  49662.000000  0    2151190.026   5395140.266  -3712786.265
10 0 59894  49782.000000  0    2491473.754   5723720.209  -2922763.617
10 0 59894  49902.000000  0    2793164.464   5946927.382  -2081443.353
10 0 59894  50022.000000  0    3049085.830   6061511.940  -1203558.549
10 0 59894  50142.000000  0    3252819.119   6066246.805   -304515.379
10 0 59894  50262.000000  0    3398855.781   5961942.602    599882.845
10 0 59894  50382.000000  0    3482733.280   5751421.400   1493720.404
10 0 59894  50502.000000  0    3501151.290   5439450.852   2361257.054
10 0 59894  50622.000000  0    3452063.797   5032639.704   3187213.980
10 0 59894  50742.000000  0    3334745.750   4539295.008   3957050.874
10 0 59894  50862.000000  0    3149833.099   3969247.659   4657226.283
10 0 59894  50982.000000  0    2899331.684   3333649.853   5275440.500
10 0 59894  51102.000000  0    2586597.216   2644748.170   5800848.956
10 0 59894  51222.000000  0    2216291.010   1915642.266   6224247.547
10 0 59894  51342.000000  0    1794309.070   1160031.070   6538229.699
10 0 59894  51462.000000  0    1327685.153    391951.807   6737309.211
10 0 59894  51582.000000  0     824471.564   -374480.354   6818009.645
10 0 59894  51702.000000  0     293599.764  -1125330.988   6778922.800
10 0 59894  51822.000000  0    -255278.493  -1847100.136   6620731.851
10 0 59894  51942.000000  0    -811966.742  -2526964.958   6346199.612
10 0 59894  52062.000000  0   -1365912.299  -3153007.923   5960121.715
10 0 59894  52182.000000  0   -1906403.425  -3714426.355   5469247.514
10 0 59894  52302.000000  0   -2422776.009  -4201722.425   4882170.224
10 0 59894  52422.000000  0   -2904626.507  -4606870.317   4209183.631
10 0 59894  52542.000000  0   -3342024.902  -4923455.322   3462105.372
10 0 59894  52662.000000  0   -3725721.411  -5146781.513   2654070.187
10 0 59894  52782.000000  0   -4047342.764  -5273945.931   1799298.265
10 0 59894  52902.000000  0   -4299575.330  -5303877.707    912841.388
10 0 59894  53022.000000  0   -4476329.259  -5237339.759     10311.566
10 0 59894  53142.000000  0   -4572879.570  -5076893.569   -892401.839
99
